NOAA 1 [-]              
1 04793U 70106A   23346.78462313 -.00000022  00000+0  13436-3 0  9993
2 04793 101.4788  40.1514 0031314 343.6075 126.4585 12.54022033425698
NOAA 2 (ITOS-D) [-]     
1 06235U 72082A   23346.87899578 -.00000043  00000+0  22940-4 0  9992
2 06235 102.0067 338.7696 0004130 115.5838 303.9629 12.53171794340048
NOAA 3 [-]              
1 06920U 73086A   23346.92101361 -.00000037  00000+0  66132-4 0  9994
2 06920 102.2648 336.3806 0006721  10.5016  44.4837 12.40361364268174
NOAA 4 [-]              
1 07529U 74089A   23346.93467253 -.00000044  00000+0  14847-4 0  9994
2 07529 101.9747 334.5802 0008972 144.1095 271.4238 12.53174600244623
NOAA 5 [-]              
1 09057U 76077A   23346.93307314 -.00000039  00000+0  50776-4 0  9997
2 09057 102.1819 315.8869 0009369 219.8831 205.6127 12.37792737140987
TIROS N [-]             
1 11060U 78096A   23346.89595040  .00000166  00000+0  10018-3 0  9991
2 11060  98.5603  29.0467 0010819  22.8315 337.3340 14.18690279548657
NOAA 6 [-]              
1 11416U 79057A   23346.95840833  .00000307  00000+0  12514-3 0  9994
2 11416  98.6425   3.3111 0011375  94.2287 266.0197 14.34271938319418
NOAA 7 [-]              
1 12553U 81059A   23346.78554675  .00000046  00000+0  44919-4 0  9994
2 12553  98.9232  40.6837 0011579  14.3401 345.8099 14.17465540194767
NOAA 8 [-]              
1 13923U 83022A   23347.00668379  .00000160  00000+0  80447-4 0  9994
2 13923  98.7232 341.7284 0016011  62.1648 298.1154 14.29105800120290
NOAA 9 [-]              
1 15427U 84123A   23346.99389427  .00000122  00000+0  84748-4 0  9995
2 15427  99.1069 334.9712 0015732  67.6243 359.7453 14.16470796 13780
NOAA 10 [-]             
1 16969U 86073A   23346.98886469  .00000140  00000+0  73245-4 0  9990
2 16969  98.6232 329.8886 0012516 155.4255 274.1238 14.28482629938686
NOAA 11 [-]             
1 19531U 88089A   23346.89799774  .00000056  00000+0  49756-4 0  9995
2 19531  98.4921 313.0102 0012164  56.7338 303.5000 14.15461942817947
NOAA 12 [-]             
1 21263U 91032A   23346.89679101  .00000112  00000+0  64786-4 0  9996
2 21263  98.5448 337.3944 0013507 184.8036 175.3017 14.26209703694189
NOAA 13 [-]             
1 22739U 93050A   23346.87055828  .00000118  00000+0  85554-4 0  9991
2 22739  98.5803 306.7828 0008583 224.7695 135.2786 14.13099723563792
NOAA 14 [-]             
1 23455U 94089A   23346.90418082  .00000061  00000+0  53208-4 0  9997
2 23455  98.4267 348.3736 0009114 194.7737 165.3172 14.14329759493527
NOAA 15 [B]             
1 25338U 98030A   23347.45223515  .00000167  00000+0  87405-4 0  9998
2 25338  98.5890  13.3066 0010954 145.7729 214.4160 14.26452043330819
NOAA 16 [-]             
1 26536U 00055A   23347.14234891  .00000100  00000+0  75094-4 0  9992
2 26536  98.5598  30.0439 0011332  55.4893 304.7349 14.13502673197651
NOAA 17 [-]             
1 27453U 02032A   23346.94239764  .00000194  00000+0  10072-3 0  9996
2 27453  98.7397 292.9098 0012534 128.7910 231.4391 14.25437444116276
NOAA 18 [B]             
1 28654U 05018A   23347.42874123  .00000235  00000+0  14980-3 0  9993
2 28654  98.8947  60.8195 0013613 229.7523 130.2459 14.13076461956888
NOAA 19 [+]             
1 33591U 09005A   23347.42545765  .00000219  00000+0  14234-3 0  9990
2 33591  99.0764  36.0143 0014793  98.5714 261.7135 14.12884947765251
SUOMI NPP [+]           
1 37849U 11061A   23347.48251700  .00000082  00000+0  59792-4 0  9991
2 37849  98.7232 283.2737 0001576  84.1148 338.9471 14.19564129628374
NOAA 20 [+]             
1 43013U 17073A   23347.43490662  .00000082  00000+0  59485-4 0  9996
2 43013  98.7310 283.1509 0001157  58.0167 302.1122 14.19549365314400
NOAA 21 (JPSS-2) [+]    
1 54234U 22150A   23347.45156837  .00000083  00000+0  59954-4 0  9992
2 54234  98.7346 282.7106 0000726  67.9692 292.1562 14.19544745 56481
